NORAD_CAT_ID,OBJECT_NAME,OBJECT_TYPE,EPOCH,MEAN_MOTION,ECCENTRICITY,INCLINATION,RA_OF_ASC_NODE,ARG_OF_PERICENTER,MEAN_ANOMALY,BSTAR,MEAN_MOTION_DOT,MEAN_MOTION_DDOT,TLE_LINE0,TLE_LINE1,TLE_LINE2,SEMIMAJOR_AXIS,PERIOD,APOGEE,PERIGEE,DECAYED
51787.0,STARLINK-3619,PAYLOAD,2022-11-01 11:43:40,15.08845392,0.0002089999999999,53.2178,84.7698,41.6651,318.45,0.0001107999999999,1.476e-05,0.0,0 STARLINK-3619,1 51787U 22017V   22305.48866291  .00001476  00000-0  11080-3 0  9997,2 51787  53.2178  84.7698 0002090  41.6651 318.4500 15.08845392 37468,6917.864000000001,95.437,541.175,538.283,0.0
51787.0,STARLINK-3619,PAYLOAD,2022-11-01 18:05:13,15.0883995,0.0002123,53.2179,83.5804,50.556,309.562,8.6948e-05,1.096e-05,0.0,0 STARLINK-3619,1 51787U 22017V   22305.75362747  .00001096  00000-0  86948-4 0  9998,2 51787  53.2179  83.5804 0002123  50.5560 309.5620 15.08839950 39144,6917.880999999999,95.438,541.214,538.2769999999998,0.0
51787.0,STARLINK-3619,PAYLOAD,2022-11-02 11:34:28,15.08836038,0.0002051,53.2172,80.3095,44.919,315.1967,0.0001462,2.039e-05,0.0,0 STARLINK-3619,1 51787U 22017V   22306.48227159  .00002039  00000-0  14620-3 0  9991,2 51787  53.2172  80.3095 0002051  44.9190 315.1967 15.08836038 39253,6917.892,95.438,541.1759999999998,538.339,0.0
51787.0,STARLINK-3619,PAYLOAD,2022-11-02 19:31:24,15.08833855,0.0002096,53.216,78.8217,33.2119,326.9004,8.573200000000001e-05,1.076e-05,0.0,0 STARLINK-3619,1 51787U 22017V   22306.81347410  .00001076  00000-0  85732-4 0  9994,2 51787  53.2160  78.8217 0002096  33.2119 326.9004 15.08833855 37668,6917.899,95.438,541.214,538.314,0.0
51787.0,STARLINK-3619,PAYLOAD,2022-11-03 11:25:15,15.088441199999998,0.0002032,53.2167,75.8489,43.9813,316.1341,7.1563e-05,8.51e-06,0.0,0 STARLINK-3619,1 51787U 22017V   22307.47587025  .00000851  00000-0  71563-4 0  9992,2 51787  53.2167  75.8489 0002032  43.9813 316.1341 15.08844120 37765,6917.868,95.437,541.139,538.327,0.0
51787.0,STARLINK-3619,PAYLOAD,2022-11-03 17:46:47,15.08855871,0.0002133,53.2172,74.6594,35.7788,324.3347,0.0002334,3.43e-05,0.0,0 STARLINK-3619,1 51787U 22017V   22307.74082449  .00003430  00000-0  23340-3 0  9997,2 51787  53.2172  74.6594 0002133  35.7788 324.3347 15.08855871 39446,6917.831999999999,95.437,541.172,538.221,0.0
51787.0,STARLINK-3619,PAYLOAD,2022-11-03 20:57:33,15.088606400000002,0.0002021,53.2171,74.0648,42.3296,317.7852,0.00050929,7.831e-05,0.0,0 STARLINK-3619,1 51787U 22017V   22307.87330404  .00007831  00000-0  50929-3 0  9990,2 51787  53.2171  74.0648 0002021  42.3296 317.7852 15.08860640 37820,6917.816999999999,95.436,541.08,538.284,0.0
51787.0,STARLINK-3619,PAYLOAD,2022-11-04 12:51:24,15.08857384,0.0002173,53.2173,71.0909,41.8894,318.2264,0.00033612,5.068e-05,0.0,0 STARLINK-3619,1 51787U 22017V   22308.53570104  .00005068  00000-0  33612-3 0  9997,2 51787  53.2173  71.0909 0002173  41.8894 318.2264 15.08857384 37920,6917.8269999999975,95.436,541.195,538.189,0.0
51787.0,STARLINK-3619,PAYLOAD,2022-11-04 19:12:57,15.08847647,0.0002234,53.2172,69.9022,44.4397,315.6774,-5.100600000000001e-05,-1.1e-05,0.0,0 STARLINK-3619,1 51787U 22017V   22308.80066167 -.00001100  00000-0 -51006-4 0  9999,2 51787  53.2172  69.9022 0002234  44.4397 315.6774 15.08847647 39601,6917.857,95.437,541.2669999999998,538.177,0.0
51787.0,STARLINK-3619,PAYLOAD,2022-11-05 11:06:48,15.08835321,0.0002055,53.2173,66.9287,38.6157,321.4981,-5.5556e-05,-1.172e-05,0.0,0 STARLINK-3619,1 51787U 22017V   22309.46306281 -.00001172  00000-0 -55556-4 0  9999,2 51787  53.2173  66.9287 0002055  38.6157 321.4981 15.08835321 39704,6917.895,95.438,541.181,538.3380000000002,0.0
51787.0,STARLINK-3619,PAYLOAD,2022-11-05 12:42:11,15.08833263,0.0002033,53.2175,66.6314,40.4291,319.6852,-2.9276e-05,-7.54e-06,0.0,0 STARLINK-3619,1 51787U 22017V   22309.52930375 -.00000754  00000-0 -29276-4 0  9998,2 51787  53.2175  66.6314 0002033  40.4291 319.6852 15.08833263 38078,6917.901,95.438,541.172,538.36,0.0
51787.0,STARLINK-3619,PAYLOAD,2022-11-05 19:03:44,15.08826441,0.0002169,53.2173,65.4418,36.6267,323.4873,0.00012407,1.686e-05,0.0,0 STARLINK-3619,1 51787U 22017V   22309.79426928  .00001686  00000-0  12407-3 0  9991,2 51787  53.2173  65.4418 0002169  36.6267 323.4873 15.08826441 39750,6917.922,95.438,541.2869999999998,538.286,0.0
51787.0,STARLINK-3619,PAYLOAD,2022-11-06 12:32:59,15.08841412,0.0002245,53.2178,62.1713,33.9066,326.2069,0.0010184,0.00015958,0.0,0 STARLINK-3619,1 51787U 22017V   22310.52291431  .00015958  00000-0  10184-2 0  9999,2 51787  53.2178  62.1713 0002245  33.9066 326.2069 15.08841412 38223,6917.876,95.437,541.294,538.188,0.0
51787.0,STARLINK-3619,PAYLOAD,2022-11-06 17:19:09,15.08847051,0.0002182,53.2181,61.2787,37.4584,322.656,0.0010029,0.00015712,0.0,0 STARLINK-3619,1 51787U 22017V   22310.72163368  .00015712  00000-0  10029-2 0  9994,2 51787  53.2181  61.2787 0002182  37.4584 322.6560 15.08847051 39897,6917.859,95.437,541.2330000000002,538.214,0.0
51787.0,STARLINK-3619,PAYLOAD,2022-11-07 12:23:46,15.08851207,0.0002143,53.2188,57.7099,37.6413,322.4729,0.00067758,0.00010515,0.0,0 STARLINK-3619,1 51787U 22017V   22311.51651211  .00010515  00000-0  67758-3 0  9999,2 51787  53.2188  57.7099 0002143  37.6413 322.4729 15.08851207 40019,6917.846,95.437,541.194,538.229,0.0
51787.0,STARLINK-3619,PAYLOAD,2022-11-07 18:45:19,15.08840302,0.0002198,53.2192,56.5208,37.7196,322.395,0.00019123,2.757e-05,0.0,0 STARLINK-3619,1 51787U 22017V   22311.78147461  .00002757  00000-0  19123-3 0  9997,2 51787  53.2192  56.5208 0002198  37.7196 322.3950 15.08840302 40055,6917.879,95.438,541.265,538.224,0.0
51787.0,STARLINK-3619,PAYLOAD,2022-11-08 07:28:23,15.08858155,0.0002374,53.2182,54.1429,33.9659,326.1485,0.00041921,6.393e-05,0.0,0 STARLINK-3619,1 51787U 22017V   22312.31138578  .00006393  00000-0  41921-3 0  9997,2 51787  53.2182  54.1429 0002374  33.9659 326.1485 15.08858155 40130,6917.825,95.436,541.332,538.048,0.0
51787.0,STARLINK-3619,PAYLOAD,2022-11-09 13:40:42,15.0882414,0.0002274,53.2189,48.4942,33.1316,326.9818,-0.0011379,-0.00018345,0.0,0 STARLINK-3619,1 51787U 22017V   22313.56993540 -.00018345  00000-0 -11379-2 0  9998,2 51787  53.2189  48.4942 0002274  33.1316 326.9818 15.08824140 38686,6917.929,95.439,541.367,538.221,0.0
51787.0,STARLINK-3619,PAYLOAD,2022-11-09 18:26:51,15.08824273,0.0002149,53.2186,47.6012,32.4353,327.6771,-0.0011238,-0.00018122,0.0,0 STARLINK-3619,1 51787U 22017V   22313.76865344 -.00018122  00000-0 -11238-2 0  9997,2 51787  53.2186  47.6012 0002149  32.4353 327.6771 15.08824273 40356,6917.928000000001,95.439,541.28,538.307,0.0
51787.0,STARLINK-3619,PAYLOAD,2022-11-10 13:31:30,15.08814195,0.0002462,53.2183,44.0339,33.7651,326.3497,0.00097425,0.0001524,0.0,0 STARLINK-3619,1 51787U 22017V   22314.56355245  .00015240  00000-0  97425-3 0  9999,2 51787  53.2183  44.0339 0002462  33.7651 326.3497 15.08814195 38832,6917.959,95.439,541.5269999999998,538.121,0.0
51787.0,STARLINK-3619,PAYLOAD,2022-11-10 18:17:40,15.08822727,0.0002455,53.218,43.1419,33.7096,326.4052,0.00096207,0.00015049,0.0,0 STARLINK-3619,1 51787U 22017V   22314.76227452  .00015049  00000-0  96207-3 0  9993,2 51787  53.2180  43.1419 0002455  33.7096 326.4052 15.08822727 38864,6917.933000000001,95.439,541.497,538.1,0.0
51787.0,STARLINK-3619,PAYLOAD,2022-11-11 11:46:55,15.08830951,0.000251,53.218,39.8706,36.3645,323.7518,0.00066194,0.0001026,0.0,0 STARLINK-3619,1 51787U 22017V   22315.49092325  .00010260  00000-0  66194-3 0  9995,2 51787  53.2180  39.8706 0002510  36.3645 323.7518 15.08830951 38973,6917.908,95.438,541.509,538.0369999999998,0.0
51787.0,STARLINK-3619,PAYLOAD,2022-11-11 13:22:18,15.0883189,0.0002508,53.2179,39.5732,35.9499,324.1661,0.00066125,0.00010249,0.0,0 STARLINK-3619,1 51787U 22017V   22315.55716371  .00010249  00000-0  66125-3 0  9997,2 51787  53.2179  39.5732 0002508  35.9499 324.1661 15.08831890 40628,6917.905,95.438,541.505,538.035,0.0
51787.0,STARLINK-3619,PAYLOAD,2022-11-11 18:08:28,15.08840555,0.0002507,53.2177,38.681,36.5106,323.6056,0.00087045,0.00013593,0.0,0 STARLINK-3619,1 51787U 22017V   22315.75588362  .00013593  00000-0  87045-3 0  9995,2 51787  53.2177  38.6810 0002507  36.5106 323.6056 15.08840555 39015,6917.879,95.438,541.4780000000002,538.009,0.0
51787.0,STARLINK-3619,PAYLOAD,2022-11-12 11:37:42,15.08840448,0.0002316,53.2184,35.4084,40.8748,319.2417,0.00040646,6.187e-05,0.0,0 STARLINK-3619,1 51787U 22017V   22316.48452495  .00006187  00000-0  40646-3 0  9990,2 51787  53.2184  35.4084 0002316  40.8748 319.2417 15.08840448 39124,6917.879,95.438,541.346,538.1419999999998,0.0
51787.0,STARLINK-3619,PAYLOAD,2022-11-12 17:59:15,15.08835047,0.0002457,53.2185,34.2192,40.2184,319.899,0.00018837,2.711e-05,0.0,0 STARLINK-3619,1 51787U 22017V   22316.74948747  .00002711  00000-0  18837-3 0  9995,2 51787  53.2185  34.2192 0002457  40.2184 319.8990 15.08835047 40804,6917.896,95.438,541.46,538.061,0.0
51787.0,STARLINK-3619,PAYLOAD,2022-11-13 11:28:30,15.08833665,0.0002349,53.2186,30.9493,33.2619,326.8521,6.0172e-05,6.69e-06,0.0,0 STARLINK-3619,1 51787U 22017V   22317.47813136  .00000669  00000-0  60172-4 0  9999,2 51787  53.2186  30.9493 0002349  33.2619 326.8521 15.08833665 39278,6917.9,95.438,541.39,538.14,0.0
51787.0,STARLINK-3619,PAYLOAD,2022-11-13 14:39:16,15.08835506,0.0002399,53.2186,30.3549,32.4312,327.6828,8.0185e-05,9.88e-06,0.0,0 STARLINK-3619,1 51787U 22017V   22317.61061106  .00000988  00000-0  80185-4 0  9997,2 51787  53.2186  30.3549 0002399  32.4312 327.6828 15.08835506 39297,6917.894,95.438,541.419,538.1,0.0
51787.0,STARLINK-3619,PAYLOAD,2022-11-14 08:08:31,15.08831967,0.0002588,53.2182,27.0842,29.972,330.142,2.8851e-05,1.71e-06,0.0,0 STARLINK-3619,1 51787U 22017V   22318.33925827  .00000171  00000-0  28851-4 0  9992,2 51787  53.2182  27.0842 0002588  29.9720 330.1420 15.08831967 41046,6917.905,95.438,541.56,537.98,0.0
